[{"OBJECT_NAME":"OTTER","OBJECT_ID":"2025-009Q","EPOCH":"2026-03-09T17:21:07.902432","MEAN_MOTION":15.27809545,"ECCENTRICITY":0.00035728,"INCLINATION":97.4065,"RA_OF_ASC_NODE":151.3812,"ARG_OF_PERICENTER":310.771,"MEAN_ANOMALY":49.3219,"EPHEMERIS_TYPE":0,"CLASSIFICATION_TYPE":"U","NORAD_CAT_ID":62623,"ELEMENT_SET_NO":999,"REV_AT_EPOCH":6372,"BSTAR":0.00045151206,"MEAN_MOTION_DOT":0.00012198,"MEAN_MOTION_DDOT":0},{"OBJECT_NAME":"STARLINK-35778","OBJECT_ID":"2025-288Q","EPOCH":"2026-03-09T22:00:01.999584","MEAN_MOTION":15.27567244,"ECCENTRICITY":0.00013665,"INCLINATION":43.0003,"RA_OF_ASC_NODE":21.8387,"ARG_OF_PERICENTER":259.3052,"MEAN_ANOMALY":184.3952,"EPHEMERIS_TYPE":0,"CLASSIFICATION_TYPE":"U","NORAD_CAT_ID":66973,"ELEMENT_SET_NO":999,"REV_AT_EPOCH":585,"BSTAR":0.00058021688,"MEAN_MOTION_DOT":0.00015732,"MEAN_MOTION_DDOT":0}]
